{"type":"FeatureCollection","features":[{"type":"Feature","properties":{"name":"San Jose","city":"Rodriguez (Montalban)","province":"Rizal","country":"Philippines","adm4_pcode":"PH0405808010","source":"OCHA COD-AB PHL admin boundaries","source_url":"https://data.humdata.org/dataset/cod-ab-phl"},"geometry":{"type":"Polygon","coordinates":[[[121.12945561700008,14.760441312000125],[121.13222527500011,14.760552827000026],[121.13485012600017,14.760658511000088],[121.13482154700034,14.760234358000105],[121.13484422500005,14.760028554000087],[121.13493278300018,14.759948704000067],[121.13503913000011,14.759945335000054],[121.13526560000003,14.759931448000088],[121.13558627100008,14.759825776000014],[121.13578610200011,14.76022347900016],[121.13592330000029,14.760292500000105],[121.13601418700011,14.760288376999995],[121.13609325300001,14.76028479100006],[121.13616800000011,14.760281400000054],[121.13627180000003,14.760229500000037],[121.13635737000016,14.760135580000053],[121.13646140000003,14.760021400000028],[121.13653870000007,14.759936600000117],[121.13658247800015,14.759803628000157],[121.13671909200002,14.759665220000045],[121.13682957100002,14.759556425000028],[121.13688497200008,14.759514510000031],[121.13751462400012,14.759145511000156],[121.13753361100021,14.759046019000095],[121.13764090500001,14.758585069000105],[121.13758698100003,14.75851867100016],[121.13750555100023,14.758417039000108],[121.13747143700004,14.758315957999969],[121.13740831200005,14.758172746000014],[121.13735658700011,14.758020698000053],[121.13733977900017,14.757899414000178],[121.13736619000031,14.757719255000097],[121.13747032800006,14.757623969000178],[121.1377532480002,14.757523369000012],[121.13806428000021,14.75740530500002],[121.138317185,14.757323020000058],[121.13849416600021,14.757218493000039],[121.13862077800002,14.75707039800011],[121.13861545300006,14.75699021700018],[121.13862395500018,14.756899771000121],[121.13860184800001,14.756735323000044],[121.1385066160002,14.75655772000016],[121.13835866700026,14.756250203000036],[121.13805936800009,14.755352316000085],[121.13809337900034,14.755250358000183],[121.1381920120001,14.755145111000104],[121.13830424900004,14.75506946500002],[121.13844029400002,14.755043152999974],[121.13855253200006,14.755062887000008],[121.13871238500008,14.755122088000064],[121.1388518980001,14.755226762000177],[121.13890965000007,14.755270092000046],[121.13909671300007,14.755342449000068],[121.13925996700004,14.755332583000154],[121.13935179800012,14.755217469000002],[121.1394436280001,14.755033286000128],[121.13949464500013,14.754760301000033],[121.13954906300035,14.754609008000045],[121.13966810300008,14.754602430000034],[121.1397565320002,14.75463532000009],[121.13984836300006,14.754766879000044],[121.14005243100007,14.754987240000048],[121.14015786600021,14.75509906600007],[121.1402292890001,14.755102355000076],[121.14033472400013,14.75506946500002],[121.1404163520001,14.754967507000117],[121.14048777500022,14.75488857099998],[121.14050478100023,14.75477016800005],[121.14046396700007,14.754533362000188],[121.14046396700007,14.75427682100019],[121.1404809730002,14.754076193000117],[121.1404435610001,14.753928188000032],[121.1404163520001,14.753865697000094],[121.14030411400006,14.753776894000111],[121.14013405800017,14.753619023000113],[121.14001161700025,14.753494041000067],[121.13994359400021,14.753323013000113],[121.139950397,14.753214476000096],[121.14026330100012,14.753122384000164],[121.1405966110002,14.752938200000187],[121.14067143600005,14.752878998000085],[121.14068344700024,14.752873550000174],[121.14075306400002,14.752832951000073],[121.1410081480002,14.75264547800009],[121.14144689400007,14.752313288000153],[121.14161014900003,14.752175149000038],[121.14172238600031,14.75205016600006],[121.1418992450001,14.751895582000088],[121.14202168500015,14.751846247000174],[121.14211691700018,14.751842958000168],[121.14246043100002,14.752010698000163],[121.14260668000009,14.752060033000078],[121.14265089500032,14.752040299000043],[121.14272572000004,14.752017276000174],[121.14280734700014,14.75194491800005],[121.14291958400008,14.751770600000043],[121.1430794370001,14.751596281000104],[121.14328010400004,14.751606148000121],[121.14349777600012,14.751556813000036],[121.14358620600001,14.751514056000133],[121.14367463500014,14.75146143100011],[121.14381748300002,14.751336448000188],[121.14391271400018,14.751290402000109],[121.14398753900002,14.751287113000103],[121.1442222170001,14.751402229000178],[121.14426643200011,14.751412096000024],[121.14432765200002,14.751402229000178],[121.14435826200008,14.75135289299999],[121.14440247700009,14.751204887000029],[121.14439567500006,14.751047013000118],[121.14433785600022,14.750846382000134],[121.14432085000021,14.750783890000093],[121.14433445500003,14.750695086000007],[121.14433105300009,14.750497744000029],[121.14432085000021,14.75032342500009],[121.14426983300018,14.750076746000047],[121.14422901900002,14.749830067000119],[121.14425282700017,14.74977086400014],[121.14430044300002,14.749642591000054],[121.14435826200008,14.749547208000081],[121.1444296860002,14.749504451000007],[121.14447050000001,14.749530763000053],[121.1445351210001,14.749589966000087],[121.14463375400032,14.749695216000077],[121.14468817200009,14.749760997000124],[121.14483102000031,14.749879403000136],[121.14491264700007,14.749892559000159],[121.1450282850002,14.749882692000142],[121.14514392400008,14.749862958000108],[121.14525616100002,14.749757708000118],[121.14526976600007,14.749711661000106],[121.14523915500024,14.749642591000054],[121.14519494100011,14.74955049800019],[121.14512351700012,14.749320263000072],[121.14505549400008,14.749014381000165],[121.14500447700004,14.748823615000163],[121.14504869200005,14.74876770100019],[121.14509290700005,14.748665739000103],[121.14515752800014,14.748524309000118],[121.14523915500024,14.748448661000054],[121.14532758500013,14.74845195000006],[121.1454194150001,14.748468395000089],[121.14550104200032,14.748468395000089],[121.14556226300033,14.7484355040001],[121.14559967500008,14.748399325000037],[121.14567790100011,14.74836972300011],[121.14572211600012,14.748340121000126],[121.14572551700019,14.748297363000177],[121.14644363900004,14.748383208000064],[121.14649864500018,14.748207260000072],[121.14654518800023,14.748117240000056],[121.1465324940001,14.747953568000014],[121.1464901820001,14.747867640000038],[121.14635901500003,14.747736702000054],[121.14626592800005,14.747609855999997],[121.14617707300022,14.74744618300008],[121.14614322400018,14.747278419000054],[121.1461009110003,14.747098379000079],[121.14606283100022,14.746807859],[121.1460712930002,14.746631910000133],[121.14611783600003,14.746566441000084],[121.14614745500012,14.74639458400003],[121.14615168600017,14.746185900000171],[121.14619399800029,14.745985400000109],[121.14629554700025,14.745825818000014],[121.14636856100003,14.745688281000128],[121.14646286200002,14.745520515000067],[121.14633753900034,14.74465606300015],[121.14627931000007,14.744254415000114],[121.14635055300005,14.744144062000146],[121.14645633300006,14.74400493799999],[121.1464901820001,14.743927192000115],[121.14651820000029,14.743832000000054],[121.14596030000018,14.743500000000154],[121.1458487000001,14.743168000000026],[121.14577350000013,14.742804200000137],[121.14576290000014,14.742753000000164],[121.14613600000007,14.741778000000124],[121.14672040800019,14.741464742000119],[121.14673280000011,14.741458100000102],[121.14682653800003,14.741277272000104],[121.14683260900006,14.74126556300007],[121.14693580000005,14.741066500000045],[121.14708650000023,14.740504900000133],[121.14713573300014,14.74032991200005],[121.14740060000008,14.739388500000132],[121.14773400000001,14.738654200000099],[121.14778850000005,14.738137800000004],[121.14772890000006,14.737407200000177],[121.14755080000009,14.73701090000003],[121.14744760000008,14.73695710000004],[121.14729229600005,14.736714903000177],[121.1467538060001,14.73688590400019],[121.14656387000002,14.736946221000096],[121.14574415000004,14.73720653099997],[121.14473310000005,14.737527599999964],[121.14434377000032,14.73750952800009],[121.14392310000017,14.737490000000093],[121.14298530000019,14.737171900000021],[121.14208440000004,14.7364867],[121.14129350000019,14.736222100000134],[121.14056940000012,14.736111600000072],[121.14020335300017,14.736135218000072],[121.14019942100003,14.73580167800003],[121.1402021570002,14.735720545000106],[121.14020695800002,14.735680966000132],[121.1402128110002,14.735617317000106],[121.14021688800005,14.735562537000021],[121.14025606400014,14.73550855100018],[121.14027681800007,14.735401071000183],[121.14043174500023,14.735204768000187],[121.14056686800006,14.735033558000055],[121.14073204600027,14.734825892999993],[121.14074303100006,14.734673157000145],[121.14075462700009,14.73449780300001],[121.14054452700009,14.734478638000155],[121.14036684300015,14.734490364000067],[121.14023379700018,14.734495735000053],[121.1401371500001,14.73451095300004],[121.14005658400015,14.734520620000069],[121.13994309200018,14.734522030000164],[121.13983379800004,14.734549139000023],[121.13973783900019,14.734569221000072],[121.13965581200023,14.73456709200019],[121.13959354700012,14.73455712700013],[121.13947817000007,14.734586369000056],[121.1393565940001,14.734601543999986],[121.13916644000005,14.734624748000158],[121.13898502000018,14.734660234000046],[121.13878954700021,14.734693549000042],[121.13864397200018,14.734705626999983],[121.13847818800014,14.734688582000103],[121.13825350000002,14.734100100000092],[121.13819276200013,14.733715852000103],[121.13816340000005,14.733530100000166],[121.13856510000005,14.733435600000178],[121.13948420000008,14.733253000000161],[121.13998406700011,14.73314466000005],[121.13991223800008,14.732914155999993],[121.13987561800013,14.732780666000167],[121.13983336500007,14.732410163000168],[121.13969815400003,14.731631016000051],[121.13958547800007,14.730721098999993],[121.13974885800008,14.73066116400014],[121.13974885800008,14.730535846000066],[121.13971914500007,14.729818373000114],[121.13973190000013,14.729331700000046],[121.13969010000005,14.729032100000154],[121.13965520000033,14.728913600000112],[121.13959920000002,14.728662200000088],[121.13946920000001,14.72796180000006],[121.13940790000015,14.727631500000086],[121.13932002900003,14.727551860000062],[121.13913251300016,14.727465314000028],[121.13885813200011,14.727357706000191],[121.13881015100014,14.727365329000179],[121.1387661550001,14.72735781199998],[121.13871098200002,14.727337807000026],[121.13865600800011,14.727314929999977],[121.1385854890002,14.727262537000001],[121.13844958500033,14.72715332600012],[121.1382313050002,14.72716117699997],[121.13816624800006,14.727231150000023],[121.13803386300003,14.727349749000155],[121.13792487900025,14.727423913000052],[121.13783813500004,14.72744391100008],[121.13774217100024,14.727482603000112],[121.13762357200028,14.727526046000037],[121.13751739600002,14.727568823000126],[121.13740977400005,14.72757346100019],[121.13732419200005,14.727585729000111],[121.13722746400003,14.727649284000108],[121.13715081800012,14.727667524000026],[121.13704728100015,14.727669069000058],[121.13696093400017,14.72765823400016],[121.13688332300023,14.727639441000122],[121.13681368400012,14.727563504000159],[121.13675686600016,14.727498843000035],[121.13671908300012,14.727392951000127],[121.13669644600031,14.727331949000074],[121.13674621200016,14.727213735000078],[121.13688757500006,14.727066540000067],[121.13686210800017,14.726954775000138],[121.13676186100031,14.72690825400008],[121.13664178500017,14.726892909000185],[121.13656281300018,14.726897220000069],[121.13650307300009,14.726849806000075],[121.13646869300021,14.726752765000128],[121.13644381600022,14.726475866000044],[121.13645955900017,14.726300660000106],[121.13641400300014,14.726212129000146],[121.13631247900025,14.726212144000044],[121.13620514000002,14.726242114000058],[121.13609800100005,14.726250737000157],[121.13600135700005,14.726215477999972],[121.13590042900012,14.726188289000106],[121.13577782900006,14.726150490999999],[121.13561151600004,14.72614596699998],[121.1353456070002,14.726187765000077],[121.13513189400021,14.726194972000087],[121.13482289600006,14.726100029999998],[121.13480283700005,14.726045423000016],[121.13465196800007,14.725651838999966],[121.13461033800002,14.725369694000165],[121.13484369000014,14.725104538000096],[121.1348917710003,14.72500356800009],[121.13485811400005,14.724917022],[121.13479080100012,14.724691041000085],[121.1347427200003,14.724469869000075],[121.13472829500006,14.72429677700012],[121.13462732500011,14.724215040000047],[121.13464175000013,14.723979443000133],[121.13469463900014,14.723695765000116],[121.13483407300032,14.723508249000076],[121.13450939900008,14.723445653000056],[121.13354590000006,14.72328090000019],[121.13353930000005,14.723116400000094],[121.13351657300007,14.722914445000129],[121.13332498100033,14.722814944000163],[121.13316285200017,14.72235630300014],[121.13244885200004,14.722644765000041],[121.13118443100018,14.723201714000027],[121.13146900000015,14.723613300000125],[121.13153280000029,14.724144300000034],[121.13150281800029,14.724533383000164],[121.13145954600009,14.724684837999973],[121.13138021200007,14.724987749000093],[121.13124318100006,14.725514235000162],[121.13104845300006,14.725990237000076],[121.13085372500018,14.726473451000118],[121.13054360300009,14.726906180000128],[121.13030560200002,14.72704321000009],[121.13003875300001,14.72746872700003],[121.12985844900004,14.727829334000091],[121.12987287300018,14.728045699000177],[121.12990172200011,14.728391882000096],[121.129771903,14.728673156000127],[121.12966372100027,14.72885345900005],[121.12958438700014,14.729026551000118],[121.12949386600019,14.729312864999997],[121.12945456900002,14.729120309000052],[121.12946178100026,14.728882308000038],[121.12948341700007,14.728557761000047],[121.1294257200002,14.728334185000051],[121.12926705300015,14.728125032000037],[121.12899299100002,14.727908668000111],[121.12851699000021,14.727641819000155],[121.12816359400006,14.727374969000095],[121.1279328060001,14.727252363000048],[121.12776692600005,14.727108120000139],[121.12748565300001,14.726978301000145],[121.12727650000022,14.726898968000057],[121.12703128700002,14.726819634000037],[121.12680049900018,14.726740300000074],[121.12666645200034,14.726618124000083],[121.12614072600002,14.726651681000078],[121.1257604120002,14.726763538000057],[121.12548077000008,14.726785909],[121.12515638600007,14.72689776600015],[121.12485437200019,14.727099109000164],[121.12460828700011,14.727244522000035],[121.12433983100016,14.727401122000003],[121.1240266320001,14.72780380600011],[121.12379669500012,14.728356507000115],[121.12359540100022,14.727814646000127],[121.12350383900002,14.727668790000166],[121.1231157000002,14.72727489600004],[121.12276182000005,14.727030915000057],[121.12262824900006,14.726947318000157],[121.1225043390001,14.726774597000144],[121.12235091400032,14.726410393000037],[121.12193905700008,14.725669865000043],[121.1218388740001,14.725534979000088],[121.12169877500014,14.725227084000096],[121.1215473420001,14.725103087000036],[121.12142274300004,14.725149640999973],[121.1210644910002,14.72565923500008],[121.12104121000016,14.725795842000082],[121.12115057500023,14.725935354000057],[121.121349699,14.726071308000144],[121.12145485500002,14.726179922000085],[121.12149981100015,14.726338887000168],[121.12145707600007,14.726492812000004],[121.12137252800005,14.72659895400011],[121.12121597300029,14.726662012000133],[121.12110720300018,14.726663020000046],[121.1209179220001,14.726641327000152],[121.12048423400006,14.7265418610001],[121.12032009500024,14.726522029000023],[121.12018903900002,14.726706755000066],[121.12012009200009,14.726842680000175],[121.12007675300003,14.726937236000026],[121.12003144500034,14.727027853000152],[121.11999401600019,14.727084981000075],[121.11994476800021,14.727161808000119],[121.11988567000014,14.727256365000017],[121.11981672300021,14.72737259000013],[121.11973989600028,14.727502606000087],[121.1196822060001,14.727630881000096],[121.11965070600002,14.727710107999997],[121.11960584300016,14.727827516000161],[121.11953234300006,14.728048015000184],[121.11950848000015,14.728129151000132],[121.11949034400004,14.72819787800006],[121.11947316200008,14.728281876999972],[121.11945311700015,14.728400240000099],[121.11943116200018,14.728520512000102],[121.1194044350002,14.728682784],[121.11938820800015,14.728752466000117],[121.11936529900015,14.728832647000104],[121.11934143500014,14.728907101000004],[121.11931184500031,14.72898823700018],[121.11927843600017,14.729059827000071],[121.11924025400003,14.729137145000038],[121.1191868000002,14.729226872000083],[121.11913907300004,14.729315644000167],[121.11908275500002,14.729408235000108],[121.11903407400018,14.729485552000028],[121.11898921000022,14.729549507000058],[121.11895389200026,14.729592461000038],[121.1189164660002,14.729628158000082],[121.11887312700003,14.729657707000115],[121.11882978900007,14.729683316000035],[121.11877660100004,14.729703015000155],[121.11869780400002,14.72972271499998],[121.1186130970001,14.729730594000046],[121.11851854000031,14.729726654000046],[121.1184141340002,14.729714835000038],[121.11834715600003,14.729703015000155],[121.1182703290001,14.729673466000122],[121.1181994120002,14.729641948000165],[121.11812849400019,14.72960451900019],[121.11805757700006,14.729549361000068],[121.11802297800034,14.729928850000078],[121.11836859000016,14.730737135000084],[121.1183880220002,14.731067883000094],[121.11838413500016,14.732093947000067],[121.11842299800003,14.732289388000027],[121.11861342300006,14.732800538000049],[121.1187028060001,14.73293584300012],[121.11920412900008,14.73327786200008],[121.11929351300023,14.733364306000112],[121.11964715900001,14.733807803000161],[121.12041274600006,14.734352776000037],[121.12097236300008,14.734728619000123],[121.12129880600014,14.734875197000179],[121.12142705200006,14.734875197000179],[121.12160581800015,14.734878956000045],[121.12182039100003,14.73493861999998],[121.12189261600008,14.735080235999988],[121.12179558000003,14.735754437000082],[121.12177240300002,14.736008689000187],[121.12176084700013,14.736131263000175],[121.12178422500006,14.736276133000104],[121.12183220200006,14.736397242000066],[121.12238176300013,14.737701823999998],[121.12242365900022,14.737828330000184],[121.1224444820001,14.73793508200015],[121.12240457400014,14.738054803000182],[121.12234659300009,14.738127089000102],[121.11959851600011,14.73969527200012],[121.1194613140002,14.739755534000096],[121.1193179070001,14.739778768000065],[121.11919084600015,14.739765756000054],[121.11906879400021,14.73970991699997],[121.11841590300025,14.739320612000029],[121.11832746000016,14.739291396999988],[121.11827030600023,14.73927190500018],[121.11818555300022,14.739273322000031],[121.11813941200023,14.739335796000034],[121.11810976400011,14.739392745000032],[121.11766432100023,14.740594381000165],[121.11763897900028,14.740684162000036],[121.1176365550001,14.740768134000064],[121.11836707200007,14.743532162000122],[121.11837445500021,14.743678437000085],[121.11838160900004,14.743822795000142],[121.11837770000022,14.744024601000092],[121.11835606900013,14.744242924000162],[121.11825674200031,14.744896614000083],[121.11813920200018,14.745240508999984],[121.1179770120001,14.74561419500003],[121.1178182760001,14.745936032000088],[121.11777222700016,14.746046385000056],[121.11776424000004,14.746158470000182],[121.11777740300022,14.746261217999972],[121.1178329290002,14.74637625500003],[121.11865903800003,14.747389493000185],[121.1187152450002,14.747506824000027],[121.11874010700012,14.747603487000106],[121.11873846800006,14.747704781000152],[121.11822157000006,14.749419337000063],[121.1182150520001,14.749510186000066],[121.11825046600018,14.749586381000029],[121.11831180000013,14.749667880000118],[121.11925888200028,14.750431835000029],[121.11966539000002,14.750899129000118],[121.11979734400006,14.751035993000073],[121.12049246400022,14.751638564000132],[121.12077218900004,14.752021505000073],[121.12082632300007,14.752152299000102],[121.12084985500007,14.752262735000159],[121.12087361400017,14.752831336000042],[121.12088633500002,14.752950203000182],[121.12089998300007,14.753024405000133],[121.12094924300004,14.753094019000002],[121.1211269480001,14.753302608000126],[121.12118489800014,14.753415918000087],[121.12124443800008,14.753550322000024],[121.12128129500002,14.753713312000173],[121.12128729400024,14.753899777000072],[121.1209333160001,14.755079704000082],[121.12093107600026,14.755190303000063],[121.12094924200017,14.755267236000122],[121.12099699600003,14.755339564999986],[121.12133166900014,14.755723377000152],[121.12141217900023,14.75583753899997],[121.12147584400009,14.756009117000133],[121.12151610900025,14.756186059000072],[121.12144307100004,14.756422331000067],[121.12130838800022,14.756650597000146],[121.12121902400008,14.756821594000144],[121.12122238500012,14.756909526000129],[121.12123927900006,14.757043186000033],[121.1214417990002,14.757590123000057],[121.12148753700001,14.757645774000139],[121.12154742500002,14.757692329000179],[121.12163560400029,14.757725479000044],[121.12177660000009,14.757727175000014],[121.12257408000016,14.757738961000086],[121.1227838010002,14.757750113000156],[121.12294165800017,14.757765341000152],[121.12305257700007,14.757793005000167],[121.12314378300016,14.757847832000152],[121.1231863590001,14.7579264580001],[121.12321421500008,14.758019242000103],[121.12334213600013,14.759419597999965],[121.12336595700003,14.759635358000082],[121.1234122740002,14.759713458000135],[121.12346859000024,14.759770858000081],[121.1235772780002,14.759802928999989],[121.12411357500002,14.759743155000024],[121.12418436500002,14.759764301000189],[121.12424433600017,14.759810495000067],[121.12454935000017,14.760157812000159],[121.12531162000016,14.759811556000102],[121.12690798500034,14.760996516999967],[121.12945561700008,14.760441312000125]]]}}]}